[{"OBJECT_NAME":"SOAP","OBJECT_ID":"2025-052BF","EPOCH":"2026-03-10T00:02:28.605408","MEAN_MOTION":14.96239557,"ECCENTRICITY":0.00016838,"INCLINATION":97.698,"RA_OF_ASC_NODE":323.0105,"ARG_OF_PERICENTER":5.2797,"MEAN_ANOMALY":354.8442,"EPHEMERIS_TYPE":0,"CLASSIFICATION_TYPE":"U","NORAD_CAT_ID":63263,"ELEMENT_SET_NO":999,"REV_AT_EPOCH":5385,"BSTAR":0.00031886977,"MEAN_MOTION_DOT":3.541e-5,"MEAN_MOTION_DDOT":0},{"OBJECT_NAME":"STARLINK-34369","OBJECT_ID":"2025-123G","EPOCH":"2026-03-09T17:36:43.094304","MEAN_MOTION":14.98333066,"ECCENTRICITY":0.00038672,"INCLINATION":70.002,"RA_OF_ASC_NODE":194.4002,"ARG_OF_PERICENTER":269.3151,"MEAN_ANOMALY":90.7565,"EPHEMERIS_TYPE":0,"CLASSIFICATION_TYPE":"U","NORAD_CAT_ID":64297,"ELEMENT_SET_NO":999,"REV_AT_EPOCH":4162,"BSTAR":0.00032177252,"MEAN_MOTION_DOT":3.749e-5,"MEAN_MOTION_DDOT":0}]
